<?xml version="1.0" encoding="UTF-8"?>
<ndm xmlns:xsi="http://www.w3.org/2001/XMLSchema-instance"
     xsi:noNamespaceSchemaLocation="https://sanaregistry.org/r/ndmxml_unqualified/ndmxml-3.0.0-master-3.0.xsd">
  <omm id="CCSDS_OMM_VERS" version="3.0">
    <header>
      <COMMENT>GENERATED VIA SPACE-TRACK.ORG API</COMMENT>
      <CREATION_DATE>2020-05-16T14:00:01</CREATION_DATE>
      <ORIGINATOR>18 SPCS</ORIGINATOR>
    </header>
    <body>
      <segment>
        <metadata>
          <OBJECT_NAME>STARLINK-1073</OBJECT_NAME>
          <OBJECT_ID>2020-001A</OBJECT_ID>
          <CENTER_NAME>EARTH</CENTER_NAME>
          <REF_FRAME>TEME</REF_FRAME>
          <TIME_SYSTEM>UTC</TIME_SYSTEM>
          <MEAN_ELEMENT_THEORY>SGP4</MEAN_ELEMENT_THEORY>
        </metadata>
        <data>
          <meanElements>
            <EPOCH>2020-05-16T14:00:01</EPOCH>
            <MEAN_MOTION>15.05566242</MEAN_MOTION>
            <ECCENTRICITY>0.0001225</ECCENTRICITY>
            <INCLINATION>52.9981</INCLINATION>
            <RA_OF_ASC_NODE>157.6133</RA_OF_ASC_NODE>
            <ARG_OF_PERICENTER>93.35</ARG_OF_PERICENTER>
            <MEAN_ANOMALY>295.8599</MEAN_ANOMALY>
          </meanElements>
          <tleParameters>
            <EPHEMERIS_TYPE>0</EPHEMERIS_TYPE>
            <CLASSIFICATION_TYPE>U</CLASSIFICATION_TYPE>
            <NORAD_CAT_ID>44914</NORAD_CAT_ID>
            <ELEMENT_SET_NO>999</ELEMENT_SET_NO>
            <REV_AT_EPOCH>176</REV_AT_EPOCH>
            <BSTAR>0.00057678</BSTAR>
            <MEAN_MOTION_DOT>0.00008131</MEAN_MOTION_DOT>
            <MEAN_MOTION_DDOT>0</MEAN_MOTION_DDOT>
          </tleParameters>
          <userDefinedParameters>
            <USER_DEFINED parameter="TLE_LINE0">0 STARLINK-1073</USER_DEFINED>
            <USER_DEFINED parameter="TLE_LINE1">1 44914U 20211A 20137.58334491 +.00008131 +00000-0 +57678-3 0 9994</USER_DEFINED>
            <USER_DEFINED parameter="TLE_LINE2">2 44914 052.9981 157.6133 0001225 093.3500 295.8599 15.05566242001761</USER_DEFINED>
          </userDefinedParameters>
        </data>
      </segment>
    </body>
  </omm>
  <omm id="CCSDS_OMM_VERS" version="3.0">
    <header>
      <COMMENT>GENERATED VIA SPACE-TRACK.ORG API</COMMENT>
      <CREATION_DATE>2020-05-16T14:00:01</CREATION_DATE>
      <ORIGINATOR>18 SPCS</ORIGINATOR>
    </header>
    <body>
      <segment>
        <metadata>
          <OBJECT_NAME>STARLINK-1084</OBJECT_NAME>
          <OBJECT_ID>2020-001B</OBJECT_ID>
          <CENTER_NAME>EARTH</CENTER_NAME>
          <REF_FRAME>TEME</REF_FRAME>
          <TIME_SYSTEM>UTC</TIME_SYSTEM>
          <MEAN_ELEMENT_THEORY>SGP4</MEAN_ELEMENT_THEORY>
        </metadata>
        <data>
          <meanElements>
            <EPOCH>2020-05-16T14:00:01</EPOCH>
            <MEAN_MOTION>15.05603711</MEAN_MOTION>
            <ECCENTRICITY>0.000126</ECCENTRICITY>
            <INCLINATION>52.9991</INCLINATION>
            <RA_OF_ASC_NODE>157.611</RA_OF_ASC_NODE>
            <ARG_OF_PERICENTER>75.9191</ARG_OF_PERICENTER>
            <MEAN_ANOMALY>151.2104</MEAN_ANOMALY>
          </meanElements>
          <tleParameters>
            <EPHEMERIS_TYPE>0</EPHEMERIS_TYPE>
            <CLASSIFICATION_TYPE>U</CLASSIFICATION_TYPE>
            <NORAD_CAT_ID>44915</NORAD_CAT_ID>
            <ELEMENT_SET_NO>999</ELEMENT_SET_NO>
            <REV_AT_EPOCH>1986</REV_AT_EPOCH>
            <BSTAR>0.0006442</BSTAR>
            <MEAN_MOTION_DOT>0.00009125</MEAN_MOTION_DOT>
            <MEAN_MOTION_DDOT>0</MEAN_MOTION_DDOT>
          </tleParameters>
          <userDefinedParameters>
            <USER_DEFINED parameter="TLE_LINE0">0 STARLINK-1084</USER_DEFINED>
            <USER_DEFINED parameter="TLE_LINE1">1 44915U 20211B 20137.58334491 +.00009125 +00000-0 +64420-3 0 9992</USER_DEFINED>
            <USER_DEFINED parameter="TLE_LINE2">2 44915 052.9991 157.6110 0001260 075.9191 151.2104 15.05603711019869</USER_DEFINED>
          </userDefinedParameters>
        </data>
      </segment>
    </body>
  </omm>
  <omm id="CCSDS_OMM_VERS" version="3.0">
    <header>
      <COMMENT>GENERATED VIA SPACE-TRACK.ORG API</COMMENT>
      <CREATION_DATE>2020-05-16T14:00:01</CREATION_DATE>
      <ORIGINATOR>18 SPCS</ORIGINATOR>
    </header>
    <body>
      <segment>
        <metadata>
          <OBJECT_NAME>STARLINK-1097</OBJECT_NAME>
          <OBJECT_ID>2020-001C</OBJECT_ID>
          <CENTER_NAME>EARTH</CENTER_NAME>
          <REF_FRAME>TEME</REF_FRAME>
          <TIME_SYSTEM>UTC</TIME_SYSTEM>
          <MEAN_ELEMENT_THEORY>SGP4</MEAN_ELEMENT_THEORY>
        </metadata>
        <data>
          <meanElements>
            <EPOCH>2020-05-16T14:00:01</EPOCH>
            <MEAN_MOTION>15.05559315</MEAN_MOTION>
            <ECCENTRICITY>0.0001361</ECCENTRICITY>
            <INCLINATION>52.999</INCLINATION>
            <RA_OF_ASC_NODE>157.6123</RA_OF_ASC_NODE>
            <ARG_OF_PERICENTER>94.2334</ARG_OF_PERICENTER>
            <MEAN_ANOMALY>78.9025</MEAN_ANOMALY>
          </meanElements>
          <tleParameters>
            <EPHEMERIS_TYPE>0</EPHEMERIS_TYPE>
            <CLASSIFICATION_TYPE>U</CLASSIFICATION_TYPE>
            <NORAD_CAT_ID>44916</NORAD_CAT_ID>
            <ELEMENT_SET_NO>999</ELEMENT_SET_NO>
            <REV_AT_EPOCH>1986</REV_AT_EPOCH>
            <BSTAR>0.00072742</BSTAR>
            <MEAN_MOTION_DOT>0.00010329</MEAN_MOTION_DOT>
            <MEAN_MOTION_DDOT>0</MEAN_MOTION_DDOT>
          </tleParameters>
          <userDefinedParameters>
            <USER_DEFINED parameter="TLE_LINE0">0 STARLINK-1097</USER_DEFINED>
            <USER_DEFINED parameter="TLE_LINE1">1 44916U 20211C 20137.58334491 +.00010329 +00000-0 +72742-3 0 9997</USER_DEFINED>
            <USER_DEFINED parameter="TLE_LINE2">2 44916 052.9990 157.6123 0001361 094.2334 078.9025 15.05559315019865</USER_DEFINED>
          </userDefinedParameters>
        </data>
      </segment>
    </body>
  </omm>
</ndm>
